{"type": "FeatureCollection", "features": [ {"type": "Feature", "properties": {"norad_id": 66052, "name": "HRC MONOBLOCK CAMERA", "group": "stations", "lat": -51.56145258010493, "lon": -15.148283222714843, "alt_km": 405.1905624820438, "timestamp": "2025-12-26T18:39:31.032489+00:00", "meta": {"OBJECT_NAME": "HRC MONOBLOCK CAMERA", "OBJECT_ID": "1998-067XR", "EPOCH": "2025-12-26T14:24:31.277664", "MEAN_MOTION": 15.55102813, "ECCENTRICITY": 0.00019152, "INCLINATION": 51.6303, "RA_OF_ASC_NODE": 72.3477, "ARG_OF_PERICENTER": 253.6034, "MEAN_ANOMALY": 106.4747, "EPHEMERIS_TYPE": 0, "CLASSIFICATION_TYPE": "U", "NORAD_CAT_ID": 66052, "ELEMENT_SET_NO": 999, "REV_AT_EPOCH": 1099, "BSTAR": 0.00053583811, "MEAN_MOTION_DOT": 0.00036444, "MEAN_MOTION_DDOT": 0}, "tle": {"line1": "1 66052U 98067XR  25360.60036201  .00036444  00000+0  53584-3 0  9991", "line2": "2 66052  51.6303  72.3477 0001915 253.6034 106.4747 15.55102813 10997"}}, "geometry": {"type": "Point", "coordinates": [-15.148283222714843, -51.56145258010493]}}, {"type": "Feature", "properties": {"norad_id": 66174, "name": "HTV-X1", "group": "stations", "lat": -51.32612897662407, "lon": -8.858923170007186, "alt_km": 419.89431910729945, "timestamp": "2025-12-26T18:39:31.032499+00:00", "meta": {"OBJECT_NAME": "HTV-X1", "OBJECT_ID": "2025-241A", "EPOCH": "2025-12-26T12:50:01.193856", "MEAN_MOTION": 15.49844261, "ECCENTRICITY": 0.00032307, "INCLINATION": 51.632, "RA_OF_ASC_NODE": 74.1581, "ARG_OF_PERICENTER": 305.5588, "MEAN_ANOMALY": 54.5099, "EPHEMERIS_TYPE": 0, "CLASSIFICATION_TYPE": "U", "NORAD_CAT_ID": 66174, "ELEMENT_SET_NO": 999, "REV_AT_EPOCH": 51, "BSTAR": 0.00025381537, "MEAN_MOTION_DOT": 0.00013978, "MEAN_MOTION_DDOT": 0}, "tle": {"line1": "1 66174U 25241A   25360.53473604  .00013978  00000+0  25382-3 0  9996", "line2": "2 66174  51.6320  74.1581 0003230 305.5588  54.5099 15.49844261   513"}}, "geometry": {"type": "Point", "coordinates": [-8.858923170007186, -51.32612897662407]}}, {"type": "Feature", "properties": {"norad_id": 66515, "name": "SZ-21 MODULE", "group": "stations", "lat": -37.85128852224438, "lon": -131.24365612265765, "alt_km": 379.20656018443697, "timestamp": "2025-12-26T18:39:31.032509+00:00", "meta": {"OBJECT_NAME": "SZ-21 MODULE", "OBJECT_ID": "2025-246C", "EPOCH": "2025-12-25T04:36:53.601984", "MEAN_MOTION": 15.63137537, "ECCENTRICITY": 0.0004589, "INCLINATION": 41.4767, "RA_OF_ASC_NODE": 300.0489, "ARG_OF_PERICENTER": 327.9877, "MEAN_ANOMALY": 32.0683, "EPHEMERIS_TYPE": 0, "CLASSIFICATION_TYPE": "U", "NORAD_CAT_ID": 66515, "ELEMENT_SET_NO": 999, "REV_AT_EPOCH": 639, "BSTAR": 0.00031272, "MEAN_MOTION_DOT": 0.00029146, "MEAN_MOTION_DDOT": 0}, "tle": {"line1": "1 66515U 25246C   25359.19228706  .00029146  00000+0  31272-3 0  9990", "line2": "2 66515  41.4767 300.0489 0004589 327.9877  32.0683 15.63137537  6398"}}, "geometry": {"type": "Point", "coordinates": [-131.24365612265765, -37.85128852224438]}}, {"type": "Feature", "properties": {"norad_id": 66645, "name": "SHENZHOU-22", "group": "stations", "lat": -20.88489769215139, "lon": 137.0471217185285, "alt_km": 387.3183917972083, "timestamp": "2025-12-26T18:39:31.032519+00:00", "meta": {"OBJECT_NAME": "SHENZHOU-22", "OBJECT_ID": "2025-272A", "EPOCH": "2025-12-26T05:27:30.670848", "MEAN_MOTION": 15.59708409, "ECCENTRICITY": 0.00085179, "INCLINATION": 41.468, "RA_OF_ASC_NODE": 294.7909, "ARG_OF_PERICENTER": 149.5046, "MEAN_ANOMALY": 210.6289, "EPHEMERIS_TYPE": 0, "CLASSIFICATION_TYPE": "U", "NORAD_CAT_ID": 66645, "ELEMENT_SET_NO": 999, "REV_AT_EPOCH": 26598, "BSTAR": 0.00023601706, "MEAN_MOTION_DOT": 0.00019151, "MEAN_MOTION_DDOT": 0}, "tle": {"line1": "1 66645U 25272A   25360.22743832  .00019151  00000+0  23602-3 0  9994", "line2": "2 66645  41.4680 294.7909 0008517 149.5046 210.6289 15.59708409265988"}}, "geometry": {"type": "Point", "coordinates": [137.0471217185285, -20.88489769215139]}}, {"type": "Feature", "properties": {"norad_id": 66664, "name": "SOYUZ-MS 28", "group": "stations", "lat": -51.326128760552095, "lon": -8.85892009283448, "alt_km": 419.8943190629643, "timestamp": "2025-12-26T18:39:31.032529+00:00", "meta": {"OBJECT_NAME": "SOYUZ-MS 28", "OBJECT_ID": "2025-275A", "EPOCH": "2025-12-26T12:50:01.193856", "MEAN_MOTION": 15.49844261, "ECCENTRICITY": 0.00032307, "INCLINATION": 51.632, "RA_OF_ASC_NODE": 74.1581, "ARG_OF_PERICENTER": 305.5588, "MEAN_ANOMALY": 54.5099, "EPHEMERIS_TYPE": 0, "CLASSIFICATION_TYPE": "U", "NORAD_CAT_ID": 66664, "ELEMENT_SET_NO": 999, "REV_AT_EPOCH": 128, "BSTAR": 0.00025381537, "MEAN_MOTION_DOT": 0.00013978, "MEAN_MOTION_DDOT": 0}, "tle": {"line1": "1 66664U 25275A   25360.53473604  .00013978  00000+0  25382-3 0  9997", "line2": "2 66664  51.6320  74.1581 0003230 305.5588  54.5099 15.49844261  1282"}}, "geometry": {"type": "Point", "coordinates": [-8.85892009283448, -51.326128760552095]}}, {"type": "Feature", "properties": {"norad_id": 66906, "name": "1998-067XS", "group": "stations", "lat": 6.454820105686763, "lon": 77.90553476439112, "alt_km": 412.8447428808531, "timestamp": "2025-12-26T18:39:31.032539+00:00", "meta": {"OBJECT_NAME": "1998-067XS", "OBJECT_ID": "1998-067XS", "EPOCH": "2025-12-26T10:53:34.755072", "MEAN_MOTION": 15.51311404, "ECCENTRICITY": 0.00026478, "INCLINATION": 51.6324, "RA_OF_ASC_NODE": 74.3703, "ARG_OF_PERICENTER": 272.6697, "MEAN_ANOMALY": 87.3989, "EPHEMERIS_TYPE": 0, "CLASSIFICATION_TYPE": "U", "NORAD_CAT_ID": 66906, "ELEMENT_SET_NO": 999, "REV_AT_EPOCH": 374, "BSTAR": 0.00044869141, "MEAN_MOTION_DOT": 0.00026457, "MEAN_MOTION_DDOT": 0}, "tle": {"line1": "1 66906U 98067XS  25360.45387448  .00026457  00000+0  44869-3 0  9993", "line2": "2 66906  51.6324  74.3703 0002647 272.6697  87.3989 15.51311404  3745"}}, "geometry": {"type": "Point", "coordinates": [77.90553476439112, 6.454820105686763]}}, {"type": "Feature", "properties": {"norad_id": 66907, "name": "1998-067XT", "group": "stations", "lat": 51.531850028934514, "lon": 166.91204331727354, "alt_km": 402.3299283686101, "timestamp": "2025-12-26T18:39:31.032549+00:00", "meta": {"OBJECT_NAME": "1998-067XT", "OBJECT_ID": "1998-067XT", "EPOCH": "2025-12-26T12:05:04.890912", "MEAN_MOTION": 15.53165234, "ECCENTRICITY": 0.00038158, "INCLINATION": 51.6314, "RA_OF_ASC_NODE": 73.9516, "ARG_OF_PERICENTER": 309.8326, "MEAN_ANOMALY": 50.2329, "EPHEMERIS_TYPE": 0, "CLASSIFICATION_TYPE": "U", "NORAD_CAT_ID": 66907, "ELEMENT_SET_NO": 999, "REV_AT_EPOCH": 375, "BSTAR": 0.00096731691, "MEAN_MOTION_DOT": 0.00061851, "MEAN_MOTION_DDOT": 0}, "tle": {"line1": "1 66907U 98067XT  25360.50352883  .00061851  00000+0  96732-3 0  9998", "line2": "2 66907  51.6314  73.9516 0003815 309.8326  50.2329 15.53165234  3750"}}, "geometry": {"type": "Point", "coordinates": [166.91204331727354, 51.531850028934514]}}, {"type": "Feature", "properties": {"norad_id": 66908, "name": "1998-067XU", "group": "stations", "lat": 50.69988437498239, "lon": 177.11661687453272, "alt_km": 402.51483913710945, "timestamp": "2025-12-26T18:39:31.032559+00:00", "meta": {"OBJECT_NAME": "1998-067XU", "OBJECT_ID": "1998-067XU", "EPOCH": "2025-12-26T12:03:26.030304", "MEAN_MOTION": 15.53224138, "ECCENTRICITY": 0.00038598, "INCLINATION": 51.6314, "RA_OF_ASC_NODE": 73.9431, "ARG_OF_PERICENTER": 307.9643, "MEAN_ANOMALY": 52.0999, "EPHEMERIS_TYPE": 0, "CLASSIFICATION_TYPE": "U", "NORAD_CAT_ID": 66908, "ELEMENT_SET_NO": 999, "REV_AT_EPOCH": 375, "BSTAR": 0.00089246936, "MEAN_MOTION_DOT": 0.00057117, "MEAN_MOTION_DDOT": 0}, "tle": {"line1": "1 66908U 98067XU  25360.50238461  .00057117  00000+0  89247-3 0  9997", "line2": "2 66908  51.6314  73.9431 0003859 307.9643  52.0999 15.53224138  3758"}}, "geometry": {"type": "Point", "coordinates": [177.11661687453272, 50.69988437498239]}}, {"type": "Feature", "properties": {"norad_id": 66909, "name": "SILVERSAT", "group": "stations", "lat": 47.53103002453224, "lon": -167.39450084994385, "alt_km": 402.1568515710969, "timestamp": "2025-12-26T18:39:31.032569+00:00", "meta": {"OBJECT_NAME": "SILVERSAT", "OBJECT_ID": "1998-067XV", "EPOCH": "2025-12-26T12:00:46.912608", "MEAN_MOTION": 15.53512588, "ECCENTRICITY": 0.00037731, "INCLINATION": 51.6312, "RA_OF_ASC_NODE": 73.9315, "ARG_OF_PERICENTER": 313.4073, "MEAN_ANOMALY": 46.6603, "EPHEMERIS_TYPE": 0, "CLASSIFICATION_TYPE": "U", "NORAD_CAT_ID": 66909, "ELEMENT_SET_NO": 999, "REV_AT_EPOCH": 375, "BSTAR": 0.0010737482, "MEAN_MOTION_DOT": 0.00069652, "MEAN_MOTION_DDOT": 0}, "tle": {"line1": "1 66909U 98067XV  25360.50054297  .00069652  00000+0  10737-2 0  9995", "line2": "2 66909  51.6312  73.9315 0003773 313.4073  46.6603 15.53512588  3752"}}, "geometry": {"type": "Point", "coordinates": [-167.39450084994385, 47.53103002453224]}}, {"type": "Feature", "properties": {"norad_id": 66910, "name": "1998-067XW", "group": "stations", "lat": 43.55319533101233, "lon": -156.34279933813676, "alt_km": 403.14721322056175, "timestamp": "2025-12-26T18:39:31.032578+00:00", "meta": {"OBJECT_NAME": "1998-067XW", "OBJECT_ID": "1998-067XW", "EPOCH": "2025-12-26T15:03:47.087712", "MEAN_MOTION": 15.53433211, "ECCENTRICITY": 0.00037023, "INCLINATION": 51.6299, "RA_OF_ASC_NODE": 73.2784, "ARG_OF_PERICENTER": 284.4746, "MEAN_ANOMALY": 75.5833, "EPHEMERIS_TYPE": 0, "CLASSIFICATION_TYPE": "U", "NORAD_CAT_ID": 66910, "ELEMENT_SET_NO": 999, "REV_AT_EPOCH": 377, "BSTAR": 0.0010494824, "MEAN_MOTION_DOT": 0.00067854, "MEAN_MOTION_DDOT": 0}, "tle": {"line1": "1 66910U 98067XW  25360.62762833  .00067854  00000+0  10495-2 0  9995", "line2": "2 66910  51.6299  73.2784 0003702 284.4746  75.5833 15.53433211  3770"}}, "geometry": {"type": "Point", "coordinates": [-156.34279933813676, 43.55319533101233]}}]}